{
  "type": "FeatureCollection",
  "features": [
    {
      "type": "Feature",
      "properties": {
        "norad_id": 32376,
        "name": "COSMO-SKYMED 2",
        "group": "resource",
        "lat": -51.77998072860615,
        "lon": -179.13103969579453,
        "alt_km": 630.196998068297,
        "timestamp": "2025-12-15T10:55:20.786186+00:00",
        "meta_object_name": "COSMO-SKYMED 2",
        "meta_object_id": "2007-059A",
        "meta_epoch": "2025-12-14T22:11:48.267744",
        "meta_mean_motion": 14.82145384,
        "meta_eccentricity": 0.00013878,
        "meta_inclination": 97.8811,
        "meta_ra_of_asc_node": 170.2159,
        "meta_arg_of_pericenter": 83.142,
        "meta_mean_anomaly": 276.9952,
        "meta_ephemeris_type": 0,
        "meta_classification_type": "U",
        "meta_norad_cat_id": 32376,
        "meta_element_set_no": 999,
        "meta_rev_at_epoch": 97470,
        "meta_bstar": 8.956851e-05,
        "meta_mean_motion_dot": 6.61e-06,
        "meta_mean_motion_ddot": 0,
        "tle_line1": "1 32376U 07059A   25348.92486421  .00000661  00000+0  89569-4 0  9993",
        "tle_line2": "2 32376  97.8811 170.2159 0001387  83.1420 276.9952 14.82145384974706"
      },
      "geometry": {
        "type": "Point",
        "coordinates": [
          -179.13103969579453,
          -51.77998072860615
        ]
      }
    },
    {
      "type": "Feature",
      "properties": {
        "norad_id": 32382,
        "name": "RADARSAT-2",
        "group": "resource",
        "lat": 70.67592881233874,
        "lon": -160.49089637039302,
        "alt_km": 784.1857740326568,
        "timestamp": "2025-12-15T10:55:20.786197+00:00",
        "meta_object_name": "RADARSAT-2",
        "meta_object_id": "2007-061A",
        "meta_epoch": "2025-12-14T22:40:02.028288",
        "meta_mean_motion": 14.2998229,
        "meta_eccentricity": 0.00011307,
        "meta_inclination": 98.5804,
        "meta_ra_of_asc_node": 353.5028,
        "meta_arg_of_pericenter": 85.788,
        "meta_mean_anomaly": 274.3432,
        "meta_ephemeris_type": 0,
        "meta_classification_type": "U",
        "meta_norad_cat_id": 32382,
        "meta_element_set_no": 999,
        "meta_rev_at_epoch": 93962,
        "meta_bstar": 3.5110508e-05,
        "meta_mean_motion_dot": 4.7e-07,
        "meta_mean_motion_ddot": 0,
        "tle_line1": "1 32382U 07061A   25348.94446792  .00000047  00000+0  35111-4 0  9994",
        "tle_line2": "2 32382  98.5804 353.5028 0001130  85.7880 274.3432 14.29982290939621"
      },
      "geometry": {
        "type": "Point",
        "coordinates": [
          -160.49089637039302,
          70.67592881233874
        ]
      }
    },
    {
      "type": "Feature",
      "properties": {
        "norad_id": 32783,
        "name": "CARTOSAT-2A",
        "group": "resource",
        "lat": 55.14491330792619,
        "lon": 27.85240066955671,
        "alt_km": 623.3301163920569,
        "timestamp": "2025-12-15T10:55:20.786207+00:00",
        "meta_object_name": "CARTOSAT-2A",
        "meta_object_id": "2008-021A",
        "meta_epoch": "2025-12-14T23:18:16.502112",
        "meta_mean_motion": 14.78943331,
        "meta_eccentricity": 0.00116562,
        "meta_inclination": 97.7934,
        "meta_ra_of_asc_node": 38.7247,
        "meta_arg_of_pericenter": 357.6018,
        "meta_mean_anomaly": 2.5136,
        "meta_ephemeris_type": 0,
        "meta_classification_type": "U",
        "meta_norad_cat_id": 32783,
        "meta_element_set_no": 999,
        "meta_rev_at_epoch": 95157,
        "meta_bstar": 0.00018244769,
        "meta_mean_motion_dot": 1.297e-05,
        "meta_mean_motion_ddot": 0,
        "tle_line1": "1 32783U 08021A   25348.97102433  .00001297  00000+0  18245-3 0  9996",
        "tle_line2": "2 32783  97.7934  38.7247 0011656 357.6018   2.5136 14.78943331951571"
      },
      "geometry": {
        "type": "Point",
        "coordinates": [
          27.85240066955671,
          55.14491330792619
        ]
      }
    },
    {
      "type": "Feature",
      "properties": {
        "norad_id": 33320,
        "name": "HUANJING 1A (HJ-1A)",
        "group": "resource",
        "lat": -35.19239121007859,
        "lon": -16.91756747429118,
        "alt_km": 618.1297264299819,
        "timestamp": "2025-12-15T10:55:20.786218+00:00",
        "meta_object_name": "HUANJING 1A (HJ-1A)",
        "meta_object_id": "2008-041A",
        "meta_epoch": "2025-12-14T23:44:58.998336",
        "meta_mean_motion": 14.83404436,
        "meta_eccentricity": 0.00199985,
        "meta_inclination": 97.6542,
        "meta_ra_of_asc_node": 337.1942,
        "meta_arg_of_pericenter": 27.2683,
        "meta_mean_anomaly": 332.9577,
        "meta_ephemeris_type": 0,
        "meta_classification_type": "U",
        "meta_norad_cat_id": 33320,
        "meta_element_set_no": 999,
        "meta_rev_at_epoch": 93109,
        "meta_bstar": 0.00026301968,
        "meta_mean_motion_dot": 2.114e-05,
        "meta_mean_motion_ddot": 0,
        "tle_line1": "1 33320U 08041A   25348.98957174  .00002114  00000+0  26302-3 0  9999",
        "tle_line2": "2 33320  97.6542 337.1942 0019998  27.2683 332.9577 14.83404436931094"
      },
      "geometry": {
        "type": "Point",
        "coordinates": [
          -16.91756747429118,
          -35.19239121007859
        ]
      }
    },
    {
      "type": "Feature",
      "properties": {
        "norad_id": 33321,
        "name": "HUANJING 1B (HJ-1B)",
        "group": "resource",
        "lat": -0.7671637703850701,
        "lon": 161.22736413126376,
        "alt_km": 634.1129878693264,
        "timestamp": "2025-12-15T10:55:20.786234+00:00",
        "meta_object_name": "HUANJING 1B (HJ-1B)",
        "meta_object_id": "2008-041B",
        "meta_epoch": "2025-12-14T22:46:38.258688",
        "meta_mean_motion": 14.82831512,
        "meta_eccentricity": 0.00381689,
        "meta_inclination": 97.6403,
        "meta_ra_of_asc_node": 340.8467,
        "meta_arg_of_pericenter": 68.7673,
        "meta_mean_anomaly": 291.7612,
        "meta_ephemeris_type": 0,
        "meta_classification_type": "U",
        "meta_norad_cat_id": 33321,
        "meta_element_set_no": 999,
        "meta_rev_at_epoch": 93110,
        "meta_bstar": 0.00027524274,
        "meta_mean_motion_dot": 2.204e-05,
        "meta_mean_motion_ddot": 0,
        "tle_line1": "1 33321U 08041B   25348.94905392  .00002204  00000+0  27524-3 0  9998",
        "tle_line2": "2 33321  97.6403 340.8467 0038168  68.7673 291.7612 14.82831512931105"
      },
      "geometry": {
        "type": "Point",
        "coordinates": [
          161.22736413126376,
          -0.7671637703850701
        ]
      }
    },
    {
      "type": "Feature",
      "properties": {
        "norad_id": 33331,
        "name": "GEOEYE 1",
        "group": "resource",
        "lat": -9.256370793731271,
        "lon": 62.036086121838245,
        "alt_km": 681.6645351325978,
        "timestamp": "2025-12-15T10:55:20.786244+00:00",
        "meta_object_name": "GEOEYE 1",
        "meta_object_id": "2008-042A",
        "meta_epoch": "2025-12-14T21:50:59.075808",
        "meta_mean_motion": 14.64815516,
        "meta_eccentricity": 0.00027276,
        "meta_inclination": 98.1251,
        "meta_ra_of_asc_node": 60.1641,
        "meta_arg_of_pericenter": 265.9748,
        "meta_mean_anomaly": 94.1143,
        "meta_ephemeris_type": 0,
        "meta_classification_type": "U",
        "meta_norad_cat_id": 33331,
        "meta_element_set_no": 999,
        "meta_rev_at_epoch": 92317,
        "meta_bstar": 0.00012649098,
        "meta_mean_motion_dot": 6.27e-06,
        "meta_mean_motion_ddot": 0,
        "tle_line1": "1 33331U 08042A   25348.91040597  .00000627  00000+0  12649-3 0  9993",
        "tle_line2": "2 33331  98.1251  60.1641 0002727 265.9748  94.1143 14.64815516923173"
      },
      "geometry": {
        "type": "Point",
        "coordinates": [
          62.036086121838245,
          -9.256370793731271
        ]
      }
    },
    {
      "type": "Feature",
      "properties": {
        "norad_id": 33396,
        "name": "THEOS",
        "group": "resource",
        "lat": 48.102120252417976,
        "lon": -122.8401328286147,
        "alt_km": 820.0256445605082,
        "timestamp": "2025-12-15T10:55:20.786255+00:00",
        "meta_object_name": "THEOS",
        "meta_object_id": "2008-049A",
        "meta_epoch": "2025-12-14T22:28:13.589760",
        "meta_mean_motion": 14.20097199,
        "meta_eccentricity": 0.00011473,
        "meta_inclination": 98.5867,
        "meta_ra_of_asc_node": 46.961,
        "meta_arg_of_pericenter": 95.2228,
        "meta_mean_anomaly": 264.908,
        "meta_ephemeris_type": 0,
        "meta_classification_type": "U",
        "meta_norad_cat_id": 33396,
        "meta_element_set_no": 999,
        "meta_rev_at_epoch": 89181,
        "meta_bstar": 0.00011667801,
        "meta_mean_motion_dot": 2.06e-06,
        "meta_mean_motion_ddot": 0,
        "tle_line1": "1 33396U 08049A   25348.93626840  .00000206  00000+0  11668-3 0  9997",
        "tle_line2": "2 33396  98.5867  46.9610 0001147  95.2228 264.9080 14.20097199891814"
      },
      "geometry": {
        "type": "Point",
        "coordinates": [
          -122.8401328286147,
          48.102120252417976
        ]
      }
    }
  ]
}